HELIOS 1B               
1 25977U 99064A   26085.66270654  .00001674  00000+0  18984-3 0  9995
2 25977  98.1673 348.4033 0001942  52.9684 307.1709 14.87761510687784
TERRA                   
1 25994U 99068A   26085.84190705  .00000441  00000+0  98860-4 0  9999
2 25994  97.9557 138.6184 0003518 115.6326 332.5406 14.61032421397584
SL-16 R/B               
1 26070U 00006B   26085.33294476  .00000283  00000+0  16805-3 0  9995
2 26070  71.0014  62.8385 0015887 163.8424 196.3209 14.15825529350919
TITAN 4B R/B            
1 26474U 00047B   26085.79017095  .00003969  00000+0  24937-3 0  9997
2 26474  67.9912 352.4204 0039794  15.3911 344.8438 15.09719910395497
ENVISAT                 
1 27386U 02009A   26085.84785145  .00000121  00000+0  52945-4 0  9992
2 27386  98.3755  39.0396 0001222  81.5064 298.9111 14.39042714261641
IDEFIX & ARIANE 42P R/B 
1 27422U 02021B   26085.83594414  .00000292  00000+0  12742-3 0  9992
2 27422  98.5889  24.2393 0012529 132.9462 227.2774 14.31037480246470
AQUA                    
1 27424U 02022A   26085.85712365  .00000936  00000+0  19640-3 0  9993
2 27424  98.4203  53.5385 0001043 117.7500 272.4317 14.62014631271245
CZ-4B R/B               
1 27432U 02024C   26085.64443740  .00000036  00000+0  41854-4 0  9993
2 27432  98.8803 138.9630 0049608 336.0034 187.8350 14.14550576231637
MIDORI II (ADEOS-II)    
1 27597U 02056A   26085.88478697  .00000328  00000+0  14676-3 0  9990
2 27597  98.7798  44.4844 0000844  23.0000 337.1219 14.29297736212752
H-2A R/B                
1 27601U 02056E   26085.68836651  .00000278  00000+0  11153-3 0  9993
2 27601  98.3231  45.4098 0071317 110.5593  68.5834 14.33771500216540
CZ-4B R/B               
1 28059U 03049C   26085.43788478  .00000348  00000+0  91214-4 0  9995
2 28059  98.6893  81.0018 0048143 179.2225 180.9054 14.55034698189038
CZ-2C R/B               
1 28222U 04012C   26085.61147920  .00061685  00000+0  58652-3 0  9998
2 28222  97.7191 152.5308 0013144 241.4600 118.5336 15.66558380206929
SL-16 R/B               
1 28353U 04021B   26085.42805723  .00000102  00000+0  77697-4 0  9992
2 28353  71.0005 197.3658 0004840 349.4452  10.6567 14.14593929125204
CZ-4B R/B               
1 28415U 04035C   26085.52978460  .00007535  00000+0  26385-3 0  9990
2 28415  97.3477 119.5717 0029967 268.5715  91.2092 15.29349140182481
CZ-2C R/B               
1 28480U 04046B   26085.73469792  .00000123  00000+0  60125-4 0  9997
2 28480  98.1976 359.6568 0140581 104.3458 257.3377 14.26997900110935
ARIANE 5 R/B            
1 28499U 04049H   26085.47456975  .00000773  00000+0  91877-4 0  9999
2 28499  98.2653 254.5630 0082970 297.0759  62.2007 14.85294952148286
CZ-2D R/B               
1 28738U 05024B   26085.50561078  .00042277  00000+0  49081-3 0  9998
2 28738  97.3587 101.2870 0002821 351.1868   8.9340 15.61656493142404
